{
  "links" : {
    "next" : "https://api.nasa.gov/neo/rest/v1/feed?start_date=2013-08-16&end_date=2013-08-16&detailed=true&api_key=t0TVs3DtDT2H8Oy2Zy8m2eVrNsAVKAexjcZXUckd",
    "prev" : "https://api.nasa.gov/neo/rest/v1/feed?start_date=2013-08-14&end_date=2013-08-14&detailed=true&api_key=t0TVs3DtDT2H8Oy2Zy8m2eVrNsAVKAexjcZXUckd",
    "self" : "https://api.nasa.gov/neo/rest/v1/feed?start_date=2013-08-15&end_date=2013-08-15&detailed=true&api_key=t0TVs3DtDT2H8Oy2Zy8m2eVrNsAVKAexjcZXUckd"
  },
  "element_count" : 6,
  "near_earth_objects" : {
    "2013-08-15" : [ {
      "links" : {
        "self" : "https://api.nasa.gov/neo/rest/v1/neo/3659806?api_key=t0TVs3DtDT2H8Oy2Zy8m2eVrNsAVKAexjcZXUckd"
      },
      "neo_reference_id" : "3659806",
      "name" : "(2014 BD33)",
      "nasa_jpl_url" : "http://ssd.jpl.nasa.gov/sbdb.cgi?sstr=3659806",
      "absolute_magnitude_h" : 17.2,
      "estimated_diameter" : {
        "kilometers" : {
          "estimated_diameter_min" : 0.9650614696,
          "estimated_diameter_max" : 2.1579430484
        },
        "meters" : {
          "estimated_diameter_min" : 965.0614695789,
          "estimated_diameter_max" : 2157.9430484443
        },
        "miles" : {
          "estimated_diameter_min" : 0.5996612104,
          "estimated_diameter_max" : 1.34088323
        },
        "feet" : {
          "estimated_diameter_min" : 3166.2122718533,
          "estimated_diameter_max" : 7079.8658710581
        }
      },
      "is_potentially_hazardous_asteroid" : false,
      "close_approach_data" : [ {
        "close_approach_date" : "2013-08-15",
        "epoch_date_close_approach" : 1376550000000,
        "relative_velocity" : {
          "kilometers_per_second" : "38.6994971448",
          "kilometers_per_hour" : "139318.1897213581",
          "miles_per_hour" : "86566.9051632517"
        },
        "miss_distance" : {
          "astronomical" : "0.0880263334",
          "lunar" : "34.2422409058",
          "kilometers" : "13168552",
          "miles" : "8182558.5"
        },
        "orbiting_body" : "Earth"
      } ],
      "orbital_data" : {
        "orbit_id" : "14",
        "orbit_determination_date" : "2017-09-14 06:18:29",
        "orbit_uncertainty" : "2",
        "minimum_orbit_intersection" : ".0774997",
        "jupiter_tisserand_invariant" : "2.301",
        "epoch_osculation" : "2458000.5",
        "eccentricity" : ".7278939595282843",
        "semi_major_axis" : "2.745801295048252",
        "inclination" : "65.97827789934944",
        "ascending_node_longitude" : "141.4804175343905",
        "orbital_period" : "1661.889275128298",
        "perihelion_distance" : ".747149118317689",
        "perihelion_argument" : "237.412178619896",
        "aphelion_distance" : "4.744453471778814",
        "perihelion_time" : "2458217.523003185601",
        "mean_anomaly" : "312.9882752623307",
        "mean_motion" : ".216620929798231",
        "equinox" : "J2000"
      }
    }, {
      "links" : {
        "self" : "https://api.nasa.gov/neo/rest/v1/neo/3726013?api_key=t0TVs3DtDT2H8Oy2Zy8m2eVrNsAVKAexjcZXUckd"
      },
      "neo_reference_id" : "3726013",
      "name" : "(2015 OB79)",
      "nasa_jpl_url" : "http://ssd.jpl.nasa.gov/sbdb.cgi?sstr=3726013",
      "absolute_magnitude_h" : 23.0,
      "estimated_diameter" : {
        "kilometers" : {
          "estimated_diameter_min" : 0.0667659413,
          "estimated_diameter_max" : 0.1492931834
        },
        "meters" : {
          "estimated_diameter_min" : 66.7659413495,
          "estimated_diameter_max" : 149.2931834393
        },
        "miles" : {
          "estimated_diameter_min" : 0.0414864197,
          "estimated_diameter_max" : 0.0927664547
        },
        "feet" : {
          "estimated_diameter_min" : 219.0483710172,
          "estimated_diameter_max" : 489.807047955
        }
      },
      "is_potentially_hazardous_asteroid" : false,
      "close_approach_data" : [ {
        "close_approach_date" : "2013-08-15",
        "epoch_date_close_approach" : 1376550000000,
        "relative_velocity" : {
          "kilometers_per_second" : "1.6448637283",
          "kilometers_per_hour" : "5921.5094218993",
          "miles_per_hour" : "3679.3956738463"
        },
        "miss_distance" : {
          "astronomical" : "0.1985935429",
          "lunar" : "77.2528915405",
          "kilometers" : "29709172",
          "miles" : "18460424"
        },
        "orbiting_body" : "Earth"
      } ],
      "orbital_data" : {
        "orbit_id" : "14",
        "orbit_determination_date" : "2017-09-15 06:22:29",
        "orbit_uncertainty" : "0",
        "minimum_orbit_intersection" : ".198622",
        "jupiter_tisserand_invariant" : "4.350",
        "epoch_osculation" : "2458000.5",
        "eccentricity" : ".2397533243010833",
        "semi_major_axis" : "1.586218827311703",
        "inclination" : "3.591809217464187",
        "ascending_node_longitude" : "4.354482014770433",
        "orbital_period" : "729.6978680602708",
        "perihelion_distance" : "1.205917590394757",
        "perihelion_argument" : "318.5427597221944",
        "aphelion_distance" : "1.96652006422865",
        "perihelion_time" : "2457980.177183135103",
        "mean_anomaly" : "10.02636076053116",
        "mean_motion" : ".4933548743358328",
        "equinox" : "J2000"
      }
    }, {
      "links" : {
        "self" : "https://api.nasa.gov/neo/rest/v1/neo/2490354?api_key=t0TVs3DtDT2H8Oy2Zy8m2eVrNsAVKAexjcZXUckd"
      },
      "neo_reference_id" : "2490354",
      "name" : "490354 (2009 FF19)",
      "nasa_jpl_url" : "http://ssd.jpl.nasa.gov/sbdb.cgi?sstr=2490354",
      "absolute_magnitude_h" : 21.3,
      "estimated_diameter" : {
        "kilometers" : {
          "estimated_diameter_min" : 0.1460679643,
          "estimated_diameter_max" : 0.3266178974
        },
        "meters" : {
          "estimated_diameter_min" : 146.0679642714,
          "estimated_diameter_max" : 326.6178974458
        },
        "miles" : {
          "estimated_diameter_min" : 0.090762397,
          "estimated_diameter_max" : 0.2029508896
        },
        "feet" : {
          "estimated_diameter_min" : 479.2256199,
          "estimated_diameter_max" : 1071.581062656
        }
      },
      "is_potentially_hazardous_asteroid" : true,
      "close_approach_data" : [ {
        "close_approach_date" : "2013-08-15",
        "epoch_date_close_approach" : 1376550000000,
        "relative_velocity" : {
          "kilometers_per_second" : "12.2885552617",
          "kilometers_per_hour" : "44238.7989420674",
          "miles_per_hour" : "27488.2692648641"
        },
        "miss_distance" : {
          "astronomical" : "0.2946410986",
          "lunar" : "114.6153869629",
          "kilometers" : "44077684",
          "miles" : "27388602"
        },
        "orbiting_body" : "Earth"
      } ],
      "orbital_data" : {
        "orbit_id" : "32",
        "orbit_determination_date" : "2017-05-15 19:06:05",
        "orbit_uncertainty" : "1",
        "minimum_orbit_intersection" : ".00409967",
        "jupiter_tisserand_invariant" : "5.170",
        "epoch_osculation" : "2458000.5",
        "eccentricity" : ".4093313683630468",
        "semi_major_axis" : "1.21307869288182",
        "inclination" : ".5536382196600321",
        "ascending_node_longitude" : "84.35110595939366",
        "orbital_period" : "488.0135592020421",
        "perihelion_distance" : ".7165275315924485",
        "perihelion_argument" : "245.364444488154",
        "aphelion_distance" : "1.709629854171192",
        "perihelion_time" : "2457988.238325641655",
        "mean_anomaly" : "9.045246153041473",
        "mean_motion" : ".7376844212866567",
        "equinox" : "J2000"
      }
    } ]
  }
}